HIMAWARI-8              
1 40267U 14060A   23350.74493837 -.00000263  00000+0  00000+0 0  9998
2 40267   0.0051 122.8809 0000853 142.3014 228.7777  1.00272187 33709
